{
  "type": "FeatureCollection",
  "features": [
    {
      "type": "Feature",
      "properties": {
        "norad_id": 66871,
        "name": "STARLINK-36095",
        "group": "last-30-days",
        "lat": 20.95280396835967,
        "lon": 153.72395772863015,
        "alt_km": 285.6717812988127,
        "timestamp": "2025-12-11T13:55:00.916391+00:00",
        "meta_object_name": "STARLINK-36095",
        "meta_object_id": "2025-281Z",
        "meta_epoch": "2025-12-10T18:00:02.000160",
        "meta_mean_motion": 15.96880545,
        "meta_eccentricity": 0.000163,
        "meta_inclination": 43.0018,
        "meta_ra_of_asc_node": 134.6543,
        "meta_arg_of_pericenter": 274.017,
        "meta_mean_anomaly": 24.1112,
        "meta_ephemeris_type": 0,
        "meta_classification_type": "U",
        "meta_norad_cat_id": 66871,
        "meta_element_set_no": 999,
        "meta_rev_at_epoch": 247,
        "meta_bstar": -0.0027933,
        "meta_mean_motion_dot": -0.01246757,
        "meta_mean_motion_ddot": 0.00047473,
        "tle_line1": "1 66871U 25281Z   25344.75002315 -.01246757  47473-3 -27933-2 0  9995",
        "tle_line2": "2 66871  43.0018 134.6543 0001630 274.0170  24.1112 15.96880545  2478"
      },
      "geometry": {
        "type": "Point",
        "coordinates": [
          153.72395772863015,
          20.95280396835967
        ]
      }
    },
    {
      "type": "Feature",
      "properties": {
        "norad_id": 66872,
        "name": "STARLINK-36082",
        "group": "last-30-days",
        "lat": 22.253366963962904,
        "lon": 155.5024621342356,
        "alt_km": 285.40907982286444,
        "timestamp": "2025-12-11T13:55:00.916403+00:00",
        "meta_object_name": "STARLINK-36082",
        "meta_object_id": "2025-281AA",
        "meta_epoch": "2025-12-10T18:00:02.000160",
        "meta_mean_motion": 15.9694067,
        "meta_eccentricity": 0.0001725,
        "meta_inclination": 43.0018,
        "meta_ra_of_asc_node": 134.6495,
        "meta_arg_of_pericenter": 271.8713,
        "meta_mean_anomaly": 28.1659,
        "meta_ephemeris_type": 0,
        "meta_classification_type": "U",
        "meta_norad_cat_id": 66872,
        "meta_element_set_no": 999,
        "meta_rev_at_epoch": 247,
        "meta_bstar": -0.0027683,
        "meta_mean_motion_dot": -0.01239806,
        "meta_mean_motion_ddot": 0.00047019,
        "tle_line1": "1 66872U 25281AA  25344.75002315 -.01239806  47019-3 -27683-2 0  9991",
        "tle_line2": "2 66872  43.0018 134.6495 0001725 271.8713  28.1659 15.96940670  2474"
      },
      "geometry": {
        "type": "Point",
        "coordinates": [
          155.5024621342356,
          22.253366963962904
        ]
      }
    },
    {
      "type": "Feature",
      "properties": {
        "norad_id": 66873,
        "name": "STARLINK-36128",
        "group": "last-30-days",
        "lat": 26.960093675938403,
        "lon": 162.51816918648194,
        "alt_km": 284.1598981005409,
        "timestamp": "2025-12-11T13:55:00.916413+00:00",
        "meta_object_name": "STARLINK-36128",
        "meta_object_id": "2025-281AB",
        "meta_epoch": "2025-12-10T18:00:02.000160",
        "meta_mean_motion": 15.97195544,
        "meta_eccentricity": 0.0001713,
        "meta_inclination": 43.0015,
        "meta_ra_of_asc_node": 134.6311,
        "meta_arg_of_pericenter": 272.8425,
        "meta_mean_anomaly": 34.4024,
        "meta_ephemeris_type": 0,
        "meta_classification_type": "U",
        "meta_norad_cat_id": 66873,
        "meta_element_set_no": 999,
        "meta_rev_at_epoch": 242,
        "meta_bstar": -0.0027664,
        "meta_mean_motion_dot": -0.01256354,
        "meta_mean_motion_ddot": 0.000483,
        "tle_line1": "1 66873U 25281AB  25344.75002315 -.01256354  48300-3 -27664-2 0  9992",
        "tle_line2": "2 66873  43.0015 134.6311 0001713 272.8425  34.4024 15.97195544  2421"
      },
      "geometry": {
        "type": "Point",
        "coordinates": [
          162.51816918648194,
          26.960093675938403
        ]
      }
    },
    {
      "type": "Feature",
      "properties": {
        "norad_id": 66874,
        "name": "STARLINK-36129",
        "group": "last-30-days",
        "lat": 24.097661818134952,
        "lon": 158.1323234684279,
        "alt_km": 284.8918414234313,
        "timestamp": "2025-12-11T13:55:00.916423+00:00",
        "meta_object_name": "STARLINK-36129",
        "meta_object_id": "2025-281AC",
        "meta_epoch": "2025-12-10T18:00:02.000160",
        "meta_mean_motion": 15.97038594,
        "meta_eccentricity": 0.0001722,
        "meta_inclination": 43.0018,
        "meta_ra_of_asc_node": 134.6426,
        "meta_arg_of_pericenter": 273.407,
        "meta_mean_anomaly": 29.3953,
        "meta_ephemeris_type": 0,
        "meta_classification_type": "U",
        "meta_norad_cat_id": 66874,
        "meta_element_set_no": 999,
        "meta_rev_at_epoch": 247,
        "meta_bstar": -0.0027677,
        "meta_mean_motion_dot": -0.01246183,
        "meta_mean_motion_ddot": 0.0004751,
        "tle_line1": "1 66874U 25281AC  25344.75002315 -.01246183  47510-3 -27677-2 0  9998",
        "tle_line2": "2 66874  43.0018 134.6426 0001722 273.4070  29.3953 15.97038594  2475"
      },
      "geometry": {
        "type": "Point",
        "coordinates": [
          158.1323234684279,
          24.097661818134952
        ]
      }
    },
    {
      "type": "Feature",
      "properties": {
        "norad_id": 66875,
        "name": "STARLINK-36053",
        "group": "last-30-days",
        "lat": 28.46331321016567,
        "lon": 165.0033138394366,
        "alt_km": 283.6777796898523,
        "timestamp": "2025-12-11T13:55:00.916435+00:00",
        "meta_object_name": "STARLINK-36053",
        "meta_object_id": "2025-281AD",
        "meta_epoch": "2025-12-10T18:00:02.000160",
        "meta_mean_motion": 15.97277493,
        "meta_eccentricity": 0.0001692,
        "meta_inclination": 43.0017,
        "meta_ra_of_asc_node": 134.6244,
        "meta_arg_of_pericenter": 274.4156,
        "meta_mean_anomaly": 35.2421,
        "meta_ephemeris_type": 0,
        "meta_classification_type": "U",
        "meta_norad_cat_id": 66875,
        "meta_element_set_no": 999,
        "meta_rev_at_epoch": 242,
        "meta_bstar": -0.0027453,
        "meta_mean_motion_dot": -0.01252507,
        "meta_mean_motion_ddot": 0.0004807,
        "tle_line1": "1 66875U 25281AD  25344.75002315 -.01252507  48070-3 -27453-2 0  9990",
        "tle_line2": "2 66875  43.0017 134.6244 0001692 274.4156  35.2421 15.97277493  2429"
      },
      "geometry": {
        "type": "Point",
        "coordinates": [
          165.0033138394366,
          28.46331321016567
        ]
      }
    },
    {
      "type": "Feature",
      "properties": {
        "norad_id": 66876,
        "name": "STARLINK-35702",
        "group": "last-30-days",
        "lat": 25.89843572981871,
        "lon": 160.84262053072058,
        "alt_km": 284.32645924535245,
        "timestamp": "2025-12-11T13:55:00.916445+00:00",
        "meta_object_name": "STARLINK-35702",
        "meta_object_id": "2025-281AE",
        "meta_epoch": "2025-12-10T18:00:02.000160",
        "meta_mean_motion": 15.97131878,
        "meta_eccentricity": 0.0001742,
        "meta_inclination": 43.002,
        "meta_ra_of_asc_node": 134.6356,
        "meta_arg_of_pericenter": 276.3063,
        "meta_mean_anomaly": 29.2605,
        "meta_ephemeris_type": 0,
        "meta_classification_type": "U",
        "meta_norad_cat_id": 66876,
        "meta_element_set_no": 999,
        "meta_rev_at_epoch": 247,
        "meta_bstar": -0.0027497,
        "meta_mean_motion_dot": -0.01244535,
        "meta_mean_motion_ddot": 0.00047441,
        "tle_line1": "1 66876U 25281AE  25344.75002315 -.01244535  47441-3 -27497-2 0  9992",
        "tle_line2": "2 66876  43.0020 134.6356 0001742 276.3063  29.2605 15.97131878  2470"
      },
      "geometry": {
        "type": "Point",
        "coordinates": [
          160.84262053072058,
          25.89843572981871
        ]
      }
    },
    {
      "type": "Feature",
      "properties": {
        "norad_id": 66877,
        "name": "ZQ-3 R/B",
        "group": "last-30-days",
        "lat": -2.7923081197732333,
        "lon": 60.287088828470935,
        "alt_km": 1110.4198849930726,
        "timestamp": "2025-12-11T13:55:00.916457+00:00",
        "meta_object_name": "ZQ-3 R/B",
        "meta_object_id": "2025-282A",
        "meta_epoch": "2025-12-11T05:41:32.796960",
        "meta_mean_motion": 14.55042374,
        "meta_eccentricity": 0.07975678,
        "meta_inclination": 56.9524,
        "meta_ra_of_asc_node": 63.4114,
        "meta_arg_of_pericenter": 217.3562,
        "meta_mean_anomaly": 136.938,
        "meta_ephemeris_type": 0,
        "meta_classification_type": "U",
        "meta_norad_cat_id": 66877,
        "meta_element_set_no": 999,
        "meta_rev_at_epoch": 117,
        "meta_bstar": 0.00028358585,
        "meta_mean_motion_dot": 0.0138296,
        "meta_mean_motion_ddot": 7.394161e-06,
        "tle_line1": "1 66877U 25282A   25345.23718515  .01382960  73942-5  28359-3 0  9993",
        "tle_line2": "2 66877  56.9524  63.4114 0797567 217.3562 136.9380 14.55042374  1177"
      },
      "geometry": {
        "type": "Point",
        "coordinates": [
          60.287088828470935,
          -2.7923081197732333
        ]
      }
    }
  ]
}